GLOBALSTAR M094         
1 39074U 13005C   26012.93536182 -.00000081  00000+0  12946-3 0  9994
2 39074  51.9951 263.4984 0001019  55.1893 304.9070 12.62265957598867
GLOBALSTAR M096         
1 39075U 13005D   26012.86915159 -.00000090  00000+0  78873-4 0  9994
2 39075  52.0094 312.3756 0000700  37.2344 322.8572 12.62269942597770
GLOBALSTAR M078         
1 39076U 13005E   26013.00144262  .00000007  00000+0  61880-3 0  9997
2 39076  51.9886  36.1977 0000526 282.4517  77.6291 12.62273945596417
GLOBALSTAR M095         
1 39077U 13005F   26012.79026802 -.00000099  00000+0  28444-4 0  9994
2 39077  52.0094  34.2245 0000244   5.9552 354.1318 12.62267749596241
GLOBALSTAR M087         
1 52888U 22064A   26012.88260127 -.00000089  00000+0  80670-4 0  9992
2 52888  51.9970 175.2698 0000995  83.4656 276.6324 12.62262320171529
